$$SOE
2461302.500000000, A.D. 2026-Sep-19 00:00:00.0000, -5.442378763894049E+08, -9.798178153800388E+07, -6.756795806539412E+07,
2461309.500000000, A.D. 2026-Sep-26 00:00:00.0000, -5.419522341847922E+08, -1.066389276418448E+08, -6.800487671821283E+07,
2461316.500000000, A.D. 2026-Oct-03 00:00:00.0000, -5.395139230821781E+08, -1.152660005831202E+08, -6.842263217891425E+07,
2461323.500000000, A.D. 2026-Oct-10 00:00:00.0000, -5.369231401538312E+08, -1.238604686052189E+08, -6.882104454450858E+07,
2461330.500000000, A.D. 2026-Oct-17 00:00:00.0000, -5.341801171673358E+08, -1.324197907261636E+08, -6.919993704987794E+07,
2461337.500000000, A.D. 2026-Oct-24 00:00:00.0000, -5.312851211497453E+08, -1.409414169660945E+08, -6.955913614106360E+07,
2461344.500000000, A.D. 2026-Oct-31 00:00:00.0000, -5.282384548753145E+08, -1.494227887520542E+08, -6.989847157302804E+07,
2461351.500000000, A.D. 2026-Nov-07 00:00:00.0000, -5.250404569375483E+08, -1.578613394266053E+08, -7.021777655678099E+07,
2461358.500000000, A.D. 2026-Nov-14 00:00:00.0000, -5.216915012043142E+08, -1.662544939734762E+08, -7.051688790154374E+07,
2461365.500000000, A.D. 2026-Nov-21 00:00:00.0000, -5.181919974672134E+08, -1.745996672791589E+08, -7.079564592979032E+07,
2461372.500000000, A.D. 2026-Nov-28 00:00:00.0000, -5.145423942831958E+08, -1.828942639397211E+08, -7.105389431933677E+07,
2461379.500000000, A.D. 2026-Dec-05 00:00:00.0000, -5.107431803894874E+08, -1.911356802701208E+08, -7.129148025806634E+07,
2461386.500000000, A.D. 2026-Dec-12 00:00:00.0000, -5.067948845268267E+08, -1.993213054052795E+08, -7.150825467186233E+07,
2461393.500000000, A.D. 2026-Dec-19 00:00:00.0000, -5.026980755573314E+08, -2.074485214869644E+08, -7.170407235168749E+07,
2461400.500000000, A.D. 2026-Dec-26 00:00:00.0000, -4.984533630187303E+08, -2.155147038056579E+08, -7.187879203746086E+07,
2461407.500000000, A.D. 2027-Jan-02 00:00:00.0000, -4.940613978392370E+08, -2.235172210896854E+08, -7.203227649962531E+07,
2461414.500000000, A.D. 2027-Jan-09 00:00:00.0000, -4.895228730967936E+08, -2.314534359226475E+08, -7.216439262753655E+07,
2461421.500000000, A.D. 2027-Jan-16 00:00:00.0000, -4.848385247883676E+08, -2.393207052814075E+08, -7.227501152724168E+07,
2461428.500000000, A.D. 2027-Jan-23 00:00:00.0000, -4.800091325645689E+08, -2.471163812352191E+08, -7.236400863615730E+07,
2461435.500000000, A.D. 2027-Jan-30 00:00:00.0000, -4.750355202431930E+08, -2.548378118545804E+08, -7.243126387582795E+07,
2461442.500000000, A.D. 2027-Feb-06 00:00:00.0000, -4.699185556780882E+08, -2.624823419903191E+08, -7.247666185393976E+07,
2461449.500000000, A.D. 2027-Feb-13 00:00:00.0000, -4.646591504441420E+08, -2.700473127035468E+08, -7.250009197357851E+07,
2461456.500000000, A.D. 2027-Feb-20 00:00:00.0000, -4.592582617019181E+08, -2.775300601380909E+08, -7.250144829743698E+07,
2461463.500000000, A.D. 2027-Feb-27 00:00:00.0000, -4.537168948457099E+08, -2.849279170505357E+08, -7.248062955777574E+07,
2461470.500000000, A.D. 2027-Mar-06 00:00:00.0000, -4.480361039170334E+08, -2.922382150768768E+08, -7.243753943215382E+07,
2461477.500000000, A.D. 2027-Mar-13 00:00:00.0000, -4.422169913834715E+08, -2.994582856874523E+08, -7.237208677090538E+07,
2461484.500000000, A.D. 2027-Mar-20 00:00:00.0000, -4.362607084116105E+08, -3.065854606659540E+08, -7.228418574122831E+07,
2461491.500000000, A.D. 2027-Mar-27 00:00:00.0000, -4.301684554315847E+08, -3.136170726627874E+08, -7.217375595161548E+07,
2461498.500000000, A.D. 2027-Apr-03 00:00:00.0000, -4.239414827901052E+08, -3.205504558716865E+08, -7.204072257946534E+07,
2461505.500000000, A.D. 2027-Apr-10 00:00:00.0000, -4.175810914304175E+08, -3.273829468073228E+08, -7.188501650577380E+07,
2461512.500000000, A.D. 2027-Apr-17 00:00:00.0000, -4.110886335764301E+08, -3.341118851987264E+08, -7.170657446008258E+07,
2461519.500000000, A.D. 2027-Apr-24 00:00:00.0000, -4.044655133407177E+08, -3.407346150610983E+08, -7.150533918787661E+07,
2461526.500000000, A.D. 2027-May-01 00:00:00.0000, -3.977131869553943E+08, -3.472484859186521E+08, -7.128125966541539E+07,
2461533.500000000, A.D. 2027-May-08 00:00:00.0000, -3.908331623168445E+08, -3.536508534305359E+08, -7.103429132875201E+07,
2461540.500000000, A.D. 2027-May-15 00:00:00.0000, -3.838269993391937E+08, -3.599390784668530E+08, -7.076439610140443E+07,
2461547.500000000, A.D. 2027-May-22 00:00:00.0000, -3.766963126781750E+08, -3.661105272273210E+08, -7.047154228882907E+07,
2461554.500000000, A.D. 2027-May-29 00:00:00.0000, -3.694427734680398E+08, -3.721625738725442E+08, -7.015570476752006E+07,
2461561.500000000, A.D. 2027-Jun-05 00:00:00.0000, -3.620681091858658E+08, -3.780926025374982E+08, -6.981686529394664E+07,
2461568.500000000, A.D. 2027-Jun-12 00:00:00.0000, -3.545741036495109E+08, -3.838980082959870E+08, -6.945501271367095E+07,
2461575.500000000, A.D. 2027-Jun-19 00:00:00.0000, -3.469625974784572E+08, -3.895761980115296E+08, -6.907014311635800E+07,
2461582.500000000, A.D. 2027-Jun-26 00:00:00.0000, -3.392354887362422E+08, -3.951245913366905E+08, -6.866225998336822E+07,
2461589.500000000, A.D. 2027-Jul-03 00:00:00.0000, -3.313947336206051E+08, -4.005406218534508E+08, -6.823137433912143E+07,
2461596.500000000, A.D. 2027-Jul-10 00:00:00.0000, -3.234423471629270E+08, -4.058217383467284E+08, -6.777750490862131E+07,
2461603.500000000, A.D. 2027-Jul-17 00:00:00.0000, -3.153804038989908E+08, -4.109654062505232E+08, -6.730067828728539E+07,
2461610.500000000, A.D. 2027-Jul-24 00:00:00.0000, -3.072110383528458E+08, -4.159691093299269E+08, -6.680092914212930E+07,
2461617.500000000, A.D. 2027-Jul-31 00:00:00.0000, -2.989364449203886E+08, -4.208303513637905E+08, -6.627830046233281E+07,
2461624.500000000, A.D. 2027-Aug-07 00:00:00.0000, -2.905588773512245E+08, -4.255466566763912E+08, -6.573284374617755E+07,
2461631.500000000, A.D. 2027-Aug-14 00:00:00.0000, -2.820806501272835E+08, -4.301155697712197E+08, -6.516461893353909E+07,
2461638.500000000, A.D. 2027-Aug-21 00:00:00.0000, -2.735041411170765E+08, -4.345346574313583E+08, -6.457369441531047E+07,
2461645.500000000, A.D. 2027-Aug-28 00:00:00.0000, -2.648317920722920E+08, -4.388015120842487E+08, -6.396014733610988E+07,
2461652.500000000, A.D. 2027-Sep-04 00:00:00.0000, -2.560661081460112E+08, -4.429137539290411E+08, -6.332406387741071E+07,
2461659.500000000, A.D. 2027-Sep-11 00:00:00.0000, -2.472096578255697E+08, -4.468690324875666E+08, -6.266553944703186E+07,
2461666.500000000, A.D. 2027-Sep-18 00:00:00.0000, -2.382650731442148E+08, -4.506650282286059E+08, -6.198467884021768E+07,
2461673.500000000, A.D. 2027-Sep-25 00:00:00.0000, -2.292350499398963E+08, -4.542994543425472E+08, -6.128159639960089E+07,
2461680.500000000, A.D. 2027-Oct-02 00:00:00.0000, -2.201223480834479E+08, -4.577700586383584E+08, -6.055641617868665E+07,
2461687.500000000, A.D. 2027-Oct-09 00:00:00.0000, -2.109297916512297E+08, -4.610746255666090E+08, -5.980927211124349E+07,
2461694.500000000, A.D. 2027-Oct-16 00:00:00.0000, -2.016602689766035E+08, -4.642109784220518E+08, -5.904030819664830E+07,
2461701.500000000, A.D. 2027-Oct-23 00:00:00.0000, -1.923167323175182E+08, -4.671769817294664E+08, -5.824967872504702E+07,
2461708.500000000, A.D. 2027-Oct-30 00:00:00.0000, -1.829021967620633E+08, -4.699705432001956E+08, -5.743754852627045E+07,
2461715.500000000, A.D. 2027-Nov-06 00:00:00.0000, -1.734197395314821E+08, -4.725896141290400E+08, -5.660409304307401E+07,
2461722.500000000, A.D. 2027-Nov-13 00:00:00.0000, -1.638725016617706E+08, -4.750321903059316E+08, -5.574949821591836E+07,
2461729.500000000, A.D. 2027-Nov-20 00:00:00.0000, -1.542636891580515E+08, -4.772963156277429E+08, -5.487396062400046E+07,
2461736.500000000, A.D. 2027-Nov-27 00:00:00.0000, -1.445965720015180E+08, -4.793800854459819E+08, -5.397768778861299E+07,
2461743.500000000, A.D. 2027-Dec-04 00:00:00.0000, -1.348744830305648E+08, -4.812816487355961E+08, -5.306089837825078E+07,
2461750.500000000, A.D. 2027-Dec-11 00:00:00.0000, -1.251008172444968E+08, -4.829992100467420E+08, -5.212382234316069E+07,
2461757.500000000, A.D. 2027-Dec-18 00:00:00.0000, -1.152790312522106E+08, -4.845310315757744E+08, -5.116670103152740E+07,
2461764.500000000, A.D. 2027-Dec-25 00:00:00.0000, -1.054126427107858E+08, -4.858754353544596E+08, -5.018978730065185E+07,
2461771.500000000, A.D. 2028-Jan-01 00:00:00.0000, -9.550522970922741E+07, -4.870308055397450E+08, -4.919334562501600E+07,
$$EOE